OBJECT_NAME,OBJECT_ID,EPOCH,MEAN_MOTION,ECCENTRICITY,INCLINATION,RA_OF_ASC_NODE,ARG_OF_PERICENTER,MEAN_ANOMALY,EPHEMERIS_TYPE,CLASSIFICATION_TYPE,NORAD_CAT_ID,ELEMENT_SET_NO,REV_AT_EPOCH,BSTAR,MEAN_MOTION_DOT,MEAN_MOTION_DDOT
TJS-7,2021-077A,2026-07-14T14:39:21.609792,1.00269246,.00030016,0.2876,264.0283,107.1107,41.6504,0,U,49115,999,982,0,-.131E-5,0
CHINASAT 9B,2021-080A,2026-07-14T16:27:55.506240,1.00268838,.0002135,0.0322,87.9034,58.8011,134.2184,0,U,49125,999,1792,0,-.32E-5,0
SHIJIAN-21 (SJ-21),2021-094A,2026-07-14T15:58:25.123584,1.00278145,.00516679,5.1759,61.0109,168.9661,70.0351,0,U,49330,999,563,0,-.359E-5,0
SES-17,2021-095A,2026-07-14T13:05:53.695104,1.00268865,.00007662,0.0239,47.9287,70.4463,303.3950,0,U,49332,999,1812,0,-.28E-5,0
SYRACUSE 4A,2021-095B,2026-07-14T13:37:50.632032,1.00269068,.00015072,0.0248,59.1718,47.1437,76.0892,0,U,49333,999,1822,0,0,0
QZS-1R (MICHIBIKI-1R),2021-096A,2026-07-12T13:50:38.812704,1.00245962,.07550099,37.5114,79.2075,272.2000,278.6576,0,U,49336,999,1726,0,-.3E-5,0
ZHONGXING-1D,2021-114A,2026-07-14T15:44:47.535936,1.00268619,.00006118,0.0565,228.2671,32.1084,38.5099,0,U,49505,999,1709,0,-.344E-5,0
STPSAT-6,2021-118A,2026-07-14T12:53:09.914784,1.00269987,.00009936,0.3892,85.0950,239.9660,48.8435,0,U,49817,999,1684,0,-.53E-6,0
EXPRESS AMU-7,2021-123A,2026-07-14T15:49:02.129088,1.00273639,.0000465,0.0396,264.1598,49.2288,1.3742,0,U,50001,999,1681,0,-.25E-5,0
EXPRESS AMU-3,2021-123B,2026-07-13T21:41:20.203584,1.00270109,.0000168,0.0153,7.8357,332.7754,19.3883,0,U,50002,999,729,0,0,0
TIANLIAN 2-02,2021-124A,2026-07-14T14:13:46.561728,1.00270635,.0001585,0.8703,85.6842,161.0813,70.0908,0,U,50005,999,1689,0,-.23E-6,0
TURKSAT 5B,2021-126A,2026-07-13T11:57:10.554912,1.00271883,.00024959,0.0700,338.4739,12.5122,161.6814,0,U,50212,999,1656,0,.142E-5,0
INMARSAT 6-F1,2021-128A,2026-07-14T13:48:57.260736,1.00270620,.00001485,0.0151,336.9429,302.5427,303.9379,0,U,50319,999,1653,0,-.179E-5,0
SHIYAN-12 01 (SY-12 01),2021-129A,2026-07-13T17:04:05.088864,1.00050328,.0002604,3.7406,79.5526,284.7957,221.7076,0,U,50321,999,1676,0,.143E-5,0
SHIYAN-12 02 (SY-12 02),2021-129B,2026-07-13T18:00:47.805984,1.00477926,.0003036,3.7398,79.5521,70.3677,161.1938,0,U,50322,999,1676,0,-.367E-5,0
TJS-9,2021-135A,2026-07-14T15:46:47.344224,1.00272593,.00021966,0.0453,102.8191,326.0868,237.5486,0,U,50574,999,1670,0,-.307E-5,0
GOES 18,2022-021A,2026-07-14T12:45:55.608768,1.00270645,.00004032,0.0188,127.4398,62.3330,157.0962,0,U,51850,999,686,0,.89E-6,0
ZHONGXING-6D,2022-038A,2026-07-13T20:12:48.756672,1.00272740,.00006039,0.0271,235.5038,296.7652,187.7170,0,U,52255,999,1569,0,-.359E-5,0
NILESAT 301,2022-061A,2026-07-14T13:22:52.067712,1.00269353,.0003497,0.0460,355.7968,83.6176,46.7417,0,U,52817,999,1501,0,-.66E-6,0
CMS-02 (GSAT-24),2022-067A,2026-07-14T08:40:35.152608,1.00269800,.00008603,0.0509,231.1001,121.8996,152.3598,0,U,52903,999,1488,0,-.171E-5,0
MEASAT 3D,2022-067B,2026-07-14T15:09:59.912352,1.00271436,.00005951,0.0457,310.0324,65.3707,236.0937,0,U,52904,999,1492,0,-.249E-5,0
SES-22,2022-071A,2026-07-14T12:45:25.657344,1.00271235,.00007984,0.0101,46.4781,60.4037,237.8400,0,U,52933,999,779,0,.97E-6,0
WFOV (USA 332),2022-073A,2026-07-14T13:59:03.792192,1.00267493,.00015091,3.7788,78.1808,214.7944,328.5053,0,U,52940,999,1464,0,-.373E-5,0
TIANLIAN 2-03,2022-078A,2026-07-14T03:12:09.361152,1.00273706,.00009262,0.7376,77.4695,4.6577,268.5483,0,U,53100,999,1481,0,.65E-6,0
SBIRS GEO-6 (USA 336),2022-092A,2026-07-14T12:22:03.196128,1.00270482,.00016345,3.2126,317.9391,154.4362,144.5139,0,U,53355,999,1450,0,-.296E-5,0
EUTELSAT KONNECT VHTS,2022-110A,2026-07-13T23:44:34.604160,1.00267750,.00026557,0.0579,98.5802,1.4940,190.6143,0,U,53765,999,710,0,.1E-6,0
ZHONGXING-1E,2022-112A,2026-07-14T15:30:54.703008,1.00270929,.0000906,0.0211,248.1154,29.1848,329.3430,0,U,53813,999,1412,0,0,0
SES-20,2022-123A,2026-07-14T12:55:39.676224,1.00269138,.00017537,0.0169,65.0325,26.8663,291.3105,0,U,53960,999,1380,0,-.108E-5,0
SES-21,2022-123B,2026-07-14T00:49:05.916864,1.00270261,.0001181,0.0398,36.9714,72.5492,63.7350,0,U,53961,999,748,0,0,0
GALAXY 33 (G-33),2022-128A,2026-07-14T12:47:03.000768,1.00271968,.00017729,0.0132,30.7698,89.6874,230.6964,0,U,54026,999,1401,0,.71E-6,0
GALAXY 34 (G-34),2022-128B,2026-07-14T12:48:17.881920,1.00275566,.0001509,0.0267,39.5061,86.9762,228.9983,0,U,54027,999,1418,0,0,0
ANGOSAT 2,2022-131A,2026-07-14T15:14:10.772160,1.00271572,.00001541,0.0200,113.9171,144.4825,285.6318,0,U,54033,999,1375,0,.127E-5,0
