TJS-7                   
1 49115U 21077A   26195.61066678 -.00000131  00000+0  00000+0 0  9994
2 49115   0.2876 264.0283 0003001 107.1107  41.6504  1.00269246  9820
CHINASAT 9B             
1 49125U 21080A   26195.68605910 -.00000320  00000+0  00000+0 0  9994
2 49125   0.0322  87.9034 0002135  58.8011 134.2184  1.00268838 17923
SHIJIAN-21 (SJ-21)      
1 49330U 21094A   26195.66556856 -.00000359  00000+0  00000+0 0  9991
2 49330   5.1759  61.0109 0051667 168.9661  70.0351  1.00278145  5635
SES-17                  
1 49332U 21095A   26195.54576036 -.00000280  00000+0  00000+0 0  9996
2 49332   0.0239  47.9287 0000766  70.4463 303.3950  1.00268865 18128
SYRACUSE 4A             
1 49333U 21095B   26195.56794713  .00000000  00000+0  00000+0 0  9992
2 49333   0.0248  59.1718 0001507  47.1437  76.0892  1.00269068 18225
QZS-1R (MICHIBIKI-1R)   
1 49336U 21096A   26193.57683811 -.00000300  00000+0  00000+0 0  9995
2 49336  37.5114  79.2075 0755009 272.2000 278.6576  1.00245962 17263
ZHONGXING-1D            
1 49505U 21114A   26195.65610574 -.00000344  00000+0  00000+0 0  9999
2 49505   0.0565 228.2671 0000611  32.1084  38.5099  1.00268619 17099
STPSAT-6                
1 49817U 21118A   26195.53692031 -.00000053  00000+0  00000+0 0  9991
2 49817   0.3892  85.0950 0000993 239.9660  48.8435  1.00269987 16849
EXPRESS AMU-7           
1 50001U 21123A   26195.65905242 -.00000250  00000+0  00000+0 0  9997
2 50001   0.0396 264.1598 0000465  49.2288   1.3742  1.00273639 16813
EXPRESS AMU-3           
1 50002U 21123B   26194.90370606  .00000000  00000+0  00000+0 0  9997
2 50002   0.0153   7.8357 0000168 332.7754  19.3883  1.00270109  7294
TIANLIAN 2-02           
1 50005U 21124A   26195.59290002 -.00000023  00000+0  00000+0 0  9994
2 50005   0.8703  85.6842 0001585 161.0813  70.0908  1.00270635 16894
TURKSAT 5B              
1 50212U 21126A   26194.49803883  .00000142  00000+0  00000+0 0  9992
2 50212   0.0700 338.4739 0002495  12.5122 161.6814  1.00271883 16564
INMARSAT 6-F1           
1 50319U 21128A   26195.57566274 -.00000179  00000+0  00000+0 0  9993
2 50319   0.0151 336.9429 0000148 302.5427 303.9379  1.00270620 16536
SHIYAN-12 01 (SY-12 01) 
1 50321U 21129A   26194.71117001  .00000143  00000+0  00000+0 0  9992
2 50321   3.7406  79.5526 0002604 284.7957 221.7076  1.00050328 16765
SHIYAN-12 02 (SY-12 02) 
1 50322U 21129B   26194.75055331 -.00000367  00000+0  00000+0 0  9993
2 50322   3.7398  79.5521 0003036  70.3677 161.1938  1.00477926 16760
TJS-9                   
1 50574U 21135A   26195.65749241 -.00000307  00000+0  00000+0 0  9993
2 50574   0.0453 102.8191 0002196 326.0868 237.5486  1.00272593 16706
GOES 18                 
1 51850U 22021A   26195.53189362  .00000089  00000+0  00000+0 0  9991
2 51850   0.0188 127.4398 0000403  62.3330 157.0962  1.00270645  6861
ZHONGXING-6D            
1 52255U 22038A   26194.84223098 -.00000359  00000+0  00000+0 0  9998
2 52255   0.0271 235.5038 0000603 296.7652 187.7170  1.00272740 15698
NILESAT 301             
1 52817U 22061A   26195.55754708 -.00000066  00000+0  00000+0 0  9999
2 52817   0.0460 355.7968 0003497  83.6176  46.7417  1.00269353 15017
CMS-02 (GSAT-24)        
1 52903U 22067A   26195.36151797 -.00000171  00000+0  00000+0 0  9996
2 52903   0.0509 231.1001 0000860 121.8996 152.3598  1.00269800 14883
MEASAT 3D               
1 52904U 22067B   26195.63194343 -.00000249  00000+0  00000+0 0  9997
2 52904   0.0457 310.0324 0000595  65.3707 236.0937  1.00271436 14928
SES-22                  
1 52933U 22071A   26195.53154696  .00000097  00000+0  00000+0 0  9990
2 52933   0.0101  46.4781 0000798  60.4037 237.8400  1.00271235  7798
WFOV (USA 332)          
1 52940U 22073A   26195.58268278 -.00000373  00000+0  00000+0 0  9995
2 52940   3.7788  78.1808 0001509 214.7944 328.5053  1.00267493 14646
TIANLIAN 2-03           
1 53100U 22078A   26195.13344168  .00000065  00000+0  00000+0 0  9990
2 53100   0.7376  77.4695 0000926   4.6577 268.5483  1.00273706 14814
SBIRS GEO-6 (USA 336)   
1 53355U 22092A   26195.51531477 -.00000296  00000+0  00000+0 0  9998
2 53355   3.2126 317.9391 0001634 154.4362 144.5139  1.00270482 14500
EUTELSAT KONNECT VHTS   
1 53765U 22110A   26194.98928940  .00000010  00000+0  00000+0 0  9992
2 53765   0.0579  98.5802 0002655   1.4940 190.6143  1.00267750  7107
ZHONGXING-1E            
1 53813U 22112A   26195.64646647  .00000000  00000+0  00000+0 0  9992
2 53813   0.0211 248.1154 0000906  29.1848 329.3430  1.00270929 14120
SES-20                  
1 53960U 22123A   26195.53865366 -.00000108  00000+0  00000+0 0  9996
2 53960   0.0169  65.0325 0001753  26.8663 291.3105  1.00269138 13802
SES-21                  
1 53961U 22123B   26195.03409626  .00000000  00000+0  00000+0 0  9995
2 53961   0.0398  36.9714 0001181  72.5492  63.7350  1.00270261  7488
GALAXY 33 (G-33)        
1 54026U 22128A   26195.53267362  .00000071  00000+0  00000+0 0  9995
2 54026   0.0132  30.7698 0001772  89.6874 230.6964  1.00271968 14017
GALAXY 34 (G-34)        
1 54027U 22128B   26195.53354030  .00000000  00000+0  00000+0 0  9997
2 54027   0.0267  39.5061 0001509  86.9762 228.9983  1.00275566 14189
ANGOSAT 2               
1 54033U 22131A   26195.63484690  .00000127  00000+0  00000+0 0  9995
2 54033   0.0200 113.9171 0000154 144.4825 285.6318  1.00271572 13754
